KUIPER-00035            
1 63748U 25088AA  25226.91668981 -.00059303  00000+0 -73019-2 0  9999
2 63748  51.8972 308.4629 0008458 116.8428 149.5793 14.82750748 16886
KUIPER-00037            
1 63749U 25088AB  25226.91668981 -.00057321  00000+0 -68670-2 0  9995
2 63749  51.8974 307.4780 0007293  55.9938 191.1028 14.83872750 17683
KUIPER-00038            
1 63750U 25088AC  25226.91668981 -.01321072  00000+0 -63723-1 0  9998
2 63750  51.8798 297.1098 0006124 115.6101 240.4006 15.21385172 16823
KUIPER-00039            
1 64500U 25134A   25225.88889556  .00035976  00000+0  10326-2 0  9996
2 64500  51.8674  83.1653 0007089 297.4811  62.5453 15.35494067  9143
KUIPER-00040            
1 64501U 25134B   25226.91668981 -.00619341  00000+0 -39799-1 0  9999
2 64501  51.8996  81.2958 0013727 309.6859 228.6054 15.10496071  5713
KUIPER-00041            
1 64502U 25134C   25226.91668981 -.01483319  00000+0 -11059+0 0  9992
2 64502  51.8823  81.8394 0011665 308.0071 280.4486 15.05786933  5933
KUIPER-00042            
1 64503U 25134D   25226.91668981  .00008274  00000+0  45900-3 0  9999
2 64503  51.8772  80.1109 0011310 311.2865 118.6284 15.14519638  5830
KUIPER-00043            
1 64504U 25134E   25226.91668981 -.00346887  00000+0 -12163-1 0  9990
2 64504  51.8705  78.3899 0008263 303.3226 266.1661 15.30354435  4655
